STARLINK-36808          
1 67881U 26035C   26076.81658798  .00290505  00000+0  14627-2 0  9991
2 67881  97.2865   9.6236 0001110 152.7389 207.3938 15.80887109  5120
STARLINK-36817          
1 67882U 26035D   26076.81433723  .00314102  00000+0  15774-2 0  9995
2 67882  97.2893   9.6262 0001901 130.5188 229.6246 15.80883180  5124
STARLINK-36856          
1 67883U 26035E   26076.81508206  .00236296  00000+0  11960-2 0  9995
2 67883  97.2884   9.6252 0001533 126.4228 233.7182 15.80911368  5129
STARLINK-36842          
1 67884U 26035F   26076.83335647 -.00073827  00000+0 -49885-3 0  9994
2 67884  97.2867   9.6277 0001456  95.8417 315.2889 15.75167812  5065
STARLINK-36826          
1 67885U 26035G   26076.83335647 -.00026843  00000+0 -17959-3 0  9998
2 67885  97.2856   9.6468 0001211  86.7332  14.2569 15.75200022  5062
STARLINK-36390          
1 67886U 26035H   26076.83335647 -.00064766  00000+0 -43584-3 0  9998
2 67886  97.2861   9.6312 0001451 101.5841 321.3838 15.75231843  5116
STARLINK-36368          
1 67887U 26035J   26076.81132938  .00126500  00000+0  65002-3 0  9997
2 67887  97.2895   9.6289 0001360  73.3034 286.8384 15.80869984  5127
STARLINK-36801          
1 67888U 26035K   26076.81057316  .00369978  00000+0  18402-2 0  9993
2 67888  97.2887   9.6295 0000951 141.4097 218.7239 15.80949799  5123
STARLINK-36372          
1 67889U 26035L   26076.80907675  .00224486  00000+0  11385-2 0  9992
2 67889  97.2897   9.6302 0001456  85.9800 274.1635 15.80898604  5123
STARLINK-36363          
1 67890U 26035M   26076.83335647 -.00055544  00000+0 -37333-3 0  9992
2 67890  97.2867   9.6394 0001357  86.1827 356.7868 15.75227263  5064
STARLINK-36816          
1 67891U 26035N   26076.79930439  .00232468  00000+0  11779-2 0  9993
2 67891  97.2903   9.6409 0001182 123.6093 236.5288 15.80898171  5127
STARLINK-36813          
1 67892U 26035P   26076.74051008  .00268469  00000+0  13526-2 0  9997
2 67892  97.2909   9.5662 0001147 112.6602 247.4787 15.80928935  5115
